GLOBALSTAR M075         
1 37192U 10054E   24298.45716603 -.00000087  00000+0  92381-4 0  9991
2 37192  51.9934 179.2841 0000762  78.0223  93.0057 12.62267999646074
GLOBALSTAR M073         
1 37193U 10054F   24298.59494882 -.00000093  00000+0  60232-4 0  9996
2 37193  52.0048  92.5001 0000885 109.6990 327.4228 12.62271647648088
GLOBALSTAR M083         
1 37739U 11033A   24298.70254539 -.00000081  00000+0  12437-3 0  9996
2 37739  51.9879  41.2257 0000810 101.5164  45.1821 12.62266626617473
GLOBALSTAR M088         
1 37740U 11033B   24298.52187451 -.00000071  00000+0  18457-3 0  9993
2 37740  51.9738 307.4679 0000497  76.0977  90.1327 12.62263731612631
GLOBALSTAR M091         
1 37741U 11033C   24298.89972163 -.00000068  00000+0  20066-3 0  9991
2 37741  51.9993 269.4529 0000816  65.4703 316.8053 12.62269054613730
GLOBALSTAR M085         
1 37742U 11033D   24298.80935164 -.00000073  00000+0  17122-3 0  9998
2 37742  51.9861 220.9725 0000981  67.9989 324.6918 12.62267868614460
GLOBALSTAR M081         
1 37743U 11033E   24297.88778507 -.00000081  00000+0  12799-3 0  9996
2 37743  51.9955 226.4196 0000886  81.5369 321.7280 12.62271315614008
GLOBALSTAR M089         
1 37744U 11033F   24298.43088802 -.00000084  00000+0  11033-3 0  9994
2 37744  51.9917 179.0419 0000598  93.4403  77.3435 12.62271284614910
